[{"OBJECT_NAME":"STARLINK-34462","OBJECT_ID":"2025-133X","EPOCH":"2026-03-09T12:36:43.204320","MEAN_MOTION":15.30226298,"ECCENTRICITY":0.0001182,"INCLINATION":53.1596,"RA_OF_ASC_NODE":117.5291,"ARG_OF_PERICENTER":222.9201,"MEAN_ANOMALY":137.1708,"EPHEMERIS_TYPE":0,"CLASSIFICATION_TYPE":"U","NORAD_CAT_ID":64493,"ELEMENT_SET_NO":999,"REV_AT_EPOCH":4116,"BSTAR":0.0013454,"MEAN_MOTION_DOT":0.00039735,"MEAN_MOTION_DDOT":0},{"OBJECT_NAME":"CZ-6A DEB","OBJECT_ID":"2022-151DE","EPOCH":"2026-03-09T09:45:43.657920","MEAN_MOTION":15.34292219,"ECCENTRICITY":0.00393756,"INCLINATION":99.0022,"RA_OF_ASC_NODE":218.5596,"ARG_OF_PERICENTER":192.6197,"MEAN_ANOMALY":167.4059,"EPHEMERIS_TYPE":0,"CLASSIFICATION_TYPE":"U","NORAD_CAT_ID":54359,"ELEMENT_SET_NO":999,"REV_AT_EPOCH":10560,"BSTAR":0.0065240017,"MEAN_MOTION_DOT":0.00228186,"MEAN_MOTION_DDOT":0}]
